{
  "norad_id": 68651,
  "name": "QIANFAN GROUP 7 OBJECT R",
  "history": [
    {
      "epoch": "2026-04-15T14:27:49.990752Z",
      "apogee_km": 813.2974018412651,
      "perigee_km": 792.7432061594645,
      "latitude_deg": -5.4507968983779986e-06,
      "longitude_deg": -92.93496151917479,
      "height_km": 816.2641453014606,
      "semi_major_axis_km": 7181.157304000365,
      "eccentricity": 0.00143112,
      "inclination_deg": 88.9915,
      "raan_deg": 327.7857,
      "arg_perigee_deg": 188.0255,
      "mean_anomaly_deg": 172.0712,
      "mean_motion_rev_day": 14.26629177
    }
  ]
}