QIANFAN GROUP 7 OBJECT R
1 68651U 26075R   26105.60266193  .00000228  00000+0  88500-4 0  9999
2 68651  88.9915 327.7857 0014311 188.0255 172.0712 14.26629177  1147
